NORAD_CAT_ID,OBJECT_NAME,OBJECT_TYPE,EPOCH,MEAN_MOTION,ECCENTRICITY,INCLINATION,RA_OF_ASC_NODE,ARG_OF_PERICENTER,MEAN_ANOMALY,BSTAR,MEAN_MOTION_DOT,MEAN_MOTION_DDOT,TLE_LINE0,TLE_LINE1,TLE_LINE2,SEMIMAJOR_AXIS,PERIOD,APOGEE,PERIGEE,DECAYED
51813.0,STARLINK-3552,PAYLOAD,2022-11-10 10:35:22,15.08840508,0.0002273,53.2191,24.5865,31.471,328.6417,-0.00022512,-3.87e-05,0.0,0 STARLINK-3552,1 51813U 22017AX  22314.44123728 -.00003870  00000-0 -22512-3 0  9998,2 51813  53.2191  24.5865 0002273  31.4710 328.6417 15.08840508 40623,6917.879,95.438,541.316,538.1709999999998,0.0
51813.0,STARLINK-3552,PAYLOAD,2022-11-10 13:46:08,15.08843365,0.0002261,53.2194,23.9917,32.4119,327.7012,-0.00018557,-3.241e-05,0.0,0 STARLINK-3552,1 51813U 22017AX  22314.57371403 -.00003241  00000-0 -18557-3 0  9993,2 51813  53.2194  23.9917 0002261  32.4119 327.7012 15.08843365 40757,6917.87,95.437,541.299,538.1709999999998,0.0
51813.0,STARLINK-3552,PAYLOAD,2022-11-11 12:01:33,15.08829488,0.0002354,53.2185,19.8289,54.9888,305.1325,0.00010642,1.405e-05,0.0,0 STARLINK-3552,1 51813U 22017AX  22315.50107652  .00001405  00000-0  10642-3 0  9995,2 51813  53.2185  19.8289 0002354  54.9888 305.1325 15.08829488 40788,6917.913000000001,95.438,541.406,538.149,0.0
51813.0,STARLINK-3552,PAYLOAD,2022-11-11 13:36:56,15.0882893,0.0002337,53.2183,19.5317,48.4572,311.6620000000001,0.00028466,4.244e-05,0.0,0 STARLINK-3552,1 51813U 22017AX  22315.56731896  .00004244  00000-0  28466-3 0  9991,2 51813  53.2183  19.5317 0002337  48.4572 311.6620 15.08828930 40796,6917.9140000000025,95.438,541.396,538.163,0.0
51813.0,STARLINK-3552,PAYLOAD,2022-11-12 03:55:24,15.08845722,0.0002409,53.2183,16.8562,38.9139,321.2027,0.00050612,7.777e-05,0.0,0 STARLINK-3552,1 51813U 22017AX  22316.16347688  .00007777  00000-0  50612-3 0  9992,2 51813  53.2183  16.8562 0002409  38.9139 321.2027 15.08845722 40999,6917.863,95.437,541.394,538.061,0.0
51813.0,STARLINK-3552,PAYLOAD,2022-11-12 10:16:56,15.08846373,0.0002246,53.2181,15.6653,39.1961,320.9193,0.00043116,6.582e-05,0.0,0 STARLINK-3552,1 51813U 22017AX  22316.42843610  .00006582  00000-0  43116-3 0  9991,2 51813  53.2181  15.6653 0002246  39.1961 320.9193 15.08846373 40926,6917.861,95.437,541.28,538.172,0.0
51813.0,STARLINK-3552,PAYLOAD,2022-11-12 21:24:38,15.08853153,0.0002306,53.2177,13.5835,38.3078,321.8078,0.0004335,6.620000000000001e-05,0.0,0 STARLINK-3552,1 51813U 22017AX  22316.89211216  .00006620  00000-0  43350-3 0  9996,2 51813  53.2177  13.5835 0002306  38.3078 321.8078 15.08853153 40990,6917.84,95.437,541.3,538.11,0.0
51813.0,STARLINK-3552,PAYLOAD,2022-11-13 03:46:10,15.08851638,0.0002373,53.2177,12.3944,38.8127,321.3035,0.00031673,4.758e-05,0.0,0 STARLINK-3552,1 51813U 22017AX  22317.15707170  .00004758  00000-0  31673-3 0  9990,2 51813  53.2177  12.3944 0002373  38.8127 321.3035 15.08851638 41144,6917.845,95.437,541.351,538.068,0.0
51813.0,STARLINK-3552,PAYLOAD,2022-11-13 10:07:43,15.08838988,0.0002354,53.218,11.2049,36.7671,323.3483,5.5067e-05,5.88e-06,0.0,0 STARLINK-3552,1 51813U 22017AX  22317.42203543  .00000588  00000-0  55067-4 0  9996,2 51813  53.2180  11.2049 0002354  36.7671 323.3483 15.08838988 41188,6917.8830000000025,95.438,541.377,538.12,0.0
51813.0,STARLINK-3552,PAYLOAD,2022-11-13 13:18:30,15.08827617,0.0002405,53.2183,10.6106,34.9771,325.1378,-5.6865e-05,-1.193e-05,0.0,0 STARLINK-3552,1 51813U 22017AX  22317.55452314 -.00001193  00000-0 -56865-4 0  9994,2 51813  53.2183  10.6106 0002405  34.9771 325.1378 15.08827617 41209,6917.918000000002,95.438,541.447,538.119,0.0
51813.0,STARLINK-3552,PAYLOAD,2022-11-14 09:58:31,15.0884341,0.0002501,53.2182,6.7451,34.8982,325.2174,0.0001871,2.691e-05,0.0,0 STARLINK-3552,1 51813U 22017AX  22318.41563808  .00002691  00000-0  18710-3 0  9999,2 51813  53.2182   6.7451 0002501  34.8982 325.2174 15.08843410 41335,6917.87,95.437,541.465,538.005,0.0
51813.0,STARLINK-3552,PAYLOAD,2022-11-14 13:09:17,15.08840143,0.0002512,53.2182,6.1512,33.3784,326.7366,0.00013348,1.837e-05,0.0,0 STARLINK-3552,1 51813U 22017AX  22318.54812009  .00001837  00000-0  13348-3 0  9996,2 51813  53.2182   6.1512 0002512  33.3784 326.7366 15.08840143 41242,6917.88,95.438,541.4830000000002,538.007,0.0
51813.0,STARLINK-3552,PAYLOAD,2022-11-15 11:24:42,15.08831348,0.0002527,53.2184,1.9879,32.1126,328.0019999999999,6.059800000000001e-05,6.76e-06,0.0,0 STARLINK-3552,1 51813U 22017AX  22319.47548695  .00000676  00000-0  60598-4 0  9996,2 51813  53.2184   1.9879 0002527  32.1126 328.0020 15.08831348 41492,6917.906999999997,95.438,541.52,538.024,0.0
51813.0,STARLINK-3552,PAYLOAD,2022-11-15 14:35:28,15.08833949,0.0002472,53.219,1.3931,32.3138,327.8005,8.0968e-05,1e-05,0.0,0 STARLINK-3552,1 51813U 22017AX  22319.60796593  .00001000  00000-0  80968-4 0  9998,2 51813  53.2190   1.3931 0002472  32.3138 327.8005 15.08833949 41406,6917.899,95.438,541.474,538.054,0.0
51813.0,STARLINK-3552,PAYLOAD,2022-11-16 12:50:52,15.08835107,0.0002544,53.2189,357.2301,34.4686,325.6471,2.3823e-05,9.1e-07,0.0,0 STARLINK-3552,1 51813U 22017AX  22320.53533032  .00000091  00000-0  23823-4 0  9995,2 51813  53.2189 357.2301 0002544  34.4686 325.6471 15.08835107 41545,6917.895,95.438,541.52,538.0,0.0
51813.0,STARLINK-3552,PAYLOAD,2022-11-16 14:26:15,15.08836337,0.0002541,53.2189,356.9327,34.8588,325.257,3.3353000000000004e-05,2.42e-06,0.0,0 STARLINK-3552,1 51813U 22017AX  22320.60156944  .00000242  00000-0  33353-4 0  9993,2 51813  53.2189 356.9327 0002541  34.8588 325.2570 15.08836337 41666,6917.892,95.438,541.514,537.999,0.0
51813.0,STARLINK-3552,PAYLOAD,2022-11-16 19:12:24,15.08841875,0.0002595,53.2189,356.0409,33.9515,326.1643,4.8227e-05,4.79e-06,0.0,0 STARLINK-3552,1 51813U 22017AX  22320.80028566  .00000479  00000-0  48227-4 0  9991,2 51813  53.2189 356.0409 0002595  33.9515 326.1643 15.08841875 41582,6917.875,95.437,541.535,537.944,0.0
51813.0,STARLINK-3552,PAYLOAD,2022-11-17 06:20:06,15.08842573,0.0002507,53.2188,353.9593,32.2792,327.8354,0.00019253,2.777e-05,0.0,0 STARLINK-3552,1 51813U 22017AX  22321.26396237  .00002777  00000-0  19253-3 0  9994,2 51813  53.2188 353.9593 0002507  32.2792 327.8354 15.08842573 41766,6917.873000000001,95.437,541.472,538.003,0.0
51813.0,STARLINK-3552,PAYLOAD,2022-11-17 12:41:39,15.08832942,0.0002623,53.2188,352.7699,31.9763,328.1388,0.00010262,1.345e-05,0.0,0 STARLINK-3552,1 51813U 22017AX  22321.52893182  .00001345  00000-0  10262-3 0  9995,2 51813  53.2188 352.7699 0002623  31.9763 328.1388 15.08832942 41695,6917.901999999999,95.438,541.582,537.952,0.0
51813.0,STARLINK-3552,PAYLOAD,2022-11-17 19:03:11,15.0883827,0.0002754,53.2188,351.5805,31.7869,328.3289,0.00010003,1.304e-05,0.0,0 STARLINK-3552,1 51813U 22017AX  22321.79388868  .00001304  00000-0  10003-3 0  9992,2 51813  53.2188 351.5805 0002754  31.7869 328.3289 15.08838270 41738,6917.886,95.438,541.656,537.845,0.0
51813.0,STARLINK-3552,PAYLOAD,2022-11-18 10:57:02,15.08841269,0.0002804,53.2184,348.6054,27.3759,332.73800000000006,0.00016813,2.388e-05,0.0,0 STARLINK-3552,1 51813U 22017AX  22322.45628393  .00002388  00000-0  16813-3 0  9994,2 51813  53.2184 348.6054 0002804  27.3759 332.7380 15.08841269 41948,6917.877,95.437,541.681,537.802,0.0
51813.0,STARLINK-3552,PAYLOAD,2022-11-18 18:53:59,15.08836457,0.0002581,53.2188,347.1204,29.8143,330.2995,6.2136e-05,7.01e-06,0.0,0 STARLINK-3552,1 51813U 22017AX  22322.78749002  .00000701  00000-0  62136-4 0  9998,2 51813  53.2188 347.1204 0002581  29.8143 330.2995 15.08836457 41880,6917.891,95.438,541.5419999999998,537.971,0.0
51813.0,STARLINK-3552,PAYLOAD,2022-11-19 04:26:17,15.08845796,0.0002619,53.2195,345.3357,30.1535,329.9608,3.6852e-05,2.98e-06,0.0,0 STARLINK-3552,1 51813U 22017AX  22323.18492479  .00000298  00000-0  36852-4 0  9993,2 51813  53.2195 345.3357 0002619  30.1535 329.9608 15.08845796 42051,6917.863,95.437,541.539,537.9159999999998,0.0
51813.0,STARLINK-3552,PAYLOAD,2022-11-19 18:44:46,15.0883545,0.0002663,53.2181,342.6603,31.6041,328.5111,6.77e-05,7.89e-06,0.0,0 STARLINK-3552,1 51813U 22017AX  22323.78108952  .00000789  00000-0  67700-4 0  9990,2 51813  53.2181 342.6603 0002663  31.6041 328.5111 15.08835450 42035,6917.894,95.438,541.602,537.9169999999998,0.0
51813.0,STARLINK-3552,PAYLOAD,2022-11-20 07:27:50,15.08848659,0.000257,53.219,340.281,30.6538,329.4604,4.6408e-05,4.5e-06,0.0,0 STARLINK-3552,1 51813U 22017AX  22324.31100088  .00000450  00000-0  46408-4 0  9999,2 51813  53.2190 340.2810 0002570  30.6538 329.4604 15.08848659 42229,6917.854,95.437,541.497,537.941,0.0
51813.0,STARLINK-3552,PAYLOAD,2022-11-20 10:38:36,15.08843646,0.0002495,53.2192,339.6863,31.8116,328.3026,8.5479e-05,1.072e-05,0.0,0 STARLINK-3552,1 51813U 22017AX  22324.44348281  .00001072  00000-0  85479-4 0  9994,2 51813  53.2192 339.6863 0002495  31.8116 328.3026 15.08843646 42139,6917.869000000002,95.437,541.46,538.008,0.0
51813.0,STARLINK-3552,PAYLOAD,2022-11-20 18:35:33,15.08833033,0.0002745,53.2188,338.2,31.0596,329.0558,7.0399e-05,8.32e-06,0.0,0 STARLINK-3552,1 51813U 22017AX  22324.77469107  .00000832  00000-0  70399-4 0  9999,2 51813  53.2188 338.2000 0002745  31.0596 329.0558 15.08833033 42186,6917.901999999999,95.438,541.6659999999998,537.868,0.0
51813.0,STARLINK-3552,PAYLOAD,2022-11-21 07:18:37,15.08846382,0.0002725,53.2185,335.8204,31.4441,328.6714,9.7725e-05,1.267e-05,0.0,0 STARLINK-3552,1 51813U 22017AX  22325.30460245  .00001267  00000-0  97725-4 0  9998,2 51813  53.2185 335.8204 0002725  31.4441 328.6714 15.08846382 42374,6917.861,95.437,541.611,537.841,0.0
51813.0,STARLINK-3552,PAYLOAD,2022-11-21 12:04:47,15.08840982,0.0002597,53.2182,334.9269,33.5185,326.5971,-3.6804e-06,-3.47e-06,0.0,0 STARLINK-3552,1 51813U 22017AX  22325.50332766 -.00000347  00000-0 -36804-5 0  9998,2 51813  53.2182 334.9269 0002597  33.5185 326.5971 15.08840982 42290,6917.877,95.437,541.539,537.946,0.0
